ONEWEB-0328             
1 49197U 21083M   25196.89734115  .00000206  00000+0  52858-3 0  9993
2 49197  87.8947  27.0168 0001705  85.7474 274.3850 13.13470776186752
ONEWEB-0331             
1 49198U 21083N   25196.93853092  .00000113  00000+0  25481-3 0  9994
2 49198  87.9116  42.2515 0001435  88.8279 271.3018 13.18685972185690
ONEWEB-0333             
1 49199U 21083P   25196.89226249  .00000181  00000+0  46191-3 0  9994
2 49199  87.8958  27.0866 0001860  90.0558 270.0784 13.13471184186769
ONEWEB-0334             
1 49200U 21083Q   25196.93389759  .00000005  00000+0 -19927-4 0  9992
2 49200  87.9273 341.4535 0002893  93.8258 266.3206 13.20771088192403
ONEWEB-0335             
1 49201U 21083R   25196.88718452  .00000120  00000+0  29436-3 0  9995
2 49201  87.8953  27.0759 0001618  92.3561 267.7753 13.13472598186779
ONEWEB-0336             
1 49202U 21083S   25196.93457308 -.00000263  00000+0 -75492-3 0  9995
2 49202  87.8958  27.0594 0001825  92.9472 267.1866 13.13468795186772
ONEWEB-0337             
1 49203U 21083T   25196.94459635 -.00000273  00000+0 -78269-3 0  9998
2 49203  87.8958  27.0569 0001633  85.1170 275.0146 13.13471585186771
ONEWEB-0338             
1 49204U 21083U   25196.90864625  .00000043  00000+0  73841-4 0  9999
2 49204  87.9281 341.4506 0002199  93.7293 266.4092 13.20770284192424
ONEWEB-0339             
1 49205U 21083V   25196.80084181 -.00000107  00000+0 -32669-3 0  9995
2 49205  87.8955  27.0721 0001849  84.8219 275.3122 13.13471724186737
ONEWEB-0340             
1 49206U 21083W   25196.84945920  .00000025  00000+0  30344-4 0  9993
2 49206  87.9124  42.2726 0001736  87.6142 272.5189 13.18684838185640
ONEWEB-0341             
1 49207U 21083X   25196.93194527 -.00000031  00000+0 -11186-3 0  9994
2 49207  87.9127  42.2667 0001675  68.4784 291.6527 13.18685503185670
ONEWEB-0342             
1 49208U 21083Y   25196.91496175 -.00000018  00000+0 -75535-4 0  9991
2 49208  87.9268 341.4255 0001997  95.1401 264.9960 13.20769974192393
ONEWEB-0343             
1 49209U 21083Z   25196.85196049 -.00000004  00000+0 -43339-4 0  9994
2 49209  87.9125  42.2696 0002012  69.5982 290.5366 13.18687065185719
ONEWEB-0344             
1 49210U 21083AA  25196.94811510 -.00000268  00000+0 -76855-3 0  9993
2 49210  87.8957  27.0825 0001577  75.9277 284.2028 13.13471758186756
ONEWEB-0345             
1 49211U 21083AB  25196.93965156 -.00000278  00000+0 -79534-3 0  9997
2 49211  87.8955  27.0365 0001541  74.6318 285.4981 13.13471223186766
ONEWEB-0346             
1 49212U 21083AC  25196.93688315 -.00000026  00000+0 -98357-4 0  9993
2 49212  87.9126  42.2747 0001447 105.2080 254.9212 13.18684954185661
ONEWEB-0348             
1 49213U 21083AD  25196.90550616  .00000052  00000+0  96819-4 0  9991
2 49213  87.9277 341.4366 0001251  96.0227 264.1049 13.20772209192420
ONEWEB-0350             
1 49214U 21083AE  25196.79662040 -.00000194  00000+0 -56632-3 0  9991
2 49214  87.8954  27.0560 0001602  80.2053 279.9257 13.13472059186775
ONEWEB-0351             
1 49215U 21083AF  25196.89904609  .00000098  00000+0  20958-3 0  9996
2 49215  87.9279 341.4204 0002518  83.1458 276.9962 13.20772204192380
ONEWEB-0352             
1 49216U 21083AG  25196.92949946 -.00000166  00000+0 -48880-3 0  9996
2 49216  87.8959  27.0717 0002206  81.4042 278.7337 13.13470303186886
ONEWEB-0354             
1 49217U 21083AH  25196.92442375 -.00000019  00000+0 -78539-4 0  9993
2 49217  87.9281 341.4141 0001628  91.6571 268.4749 13.20770190192422
ONEWEB-0355             
1 49218U 21083AJ  25196.80606740  .00000030  00000+0  48038-4 0  9991
2 49218  87.8957  27.0943 0001862  81.3980 278.7360 13.13471071186748
ONEWEB-0357             
1 49219U 21083AK  25196.92127068 -.00000025  00000+0 -92833-4 0  9994
2 49219  87.9274 341.4200 0001951  91.4709 268.6648 13.20770471192424
ONEWEB-0332             
1 49279U 21090A   25196.93026319 -.00000221  00000+0 -63058-3 0  9990
2 49279  87.9049 356.6236 0002100  94.4213 265.7156 13.14503175183405
ONEWEB-0347             
1 49280U 21090B   25196.91179620  .00000037  00000+0  57926-4 0  9995
2 49280  87.9280 341.4312 0002158 103.1776 256.9598 13.20770265186651
ONEWEB-0349             
1 49281U 21090C   25196.94336362 -.00000045  00000+0 -14372-3 0  9995
2 49281  87.9276 341.4304 0001892  93.4009 266.7341 13.20769976185440
ONEWEB-0353             
1 49282U 21090D   25196.92233297 -.00000076  00000+0 -23842-3 0  9993
2 49282  87.9048 356.6121 0002087  96.6059 263.5309 13.14502976183401
ONEWEB-0356             
1 49283U 21090E   25196.86603191 -.00000006  00000+0 -46945-4 0  9994
2 49283  87.9274 341.4363 0001786 125.4272 234.7029 13.20770944185439
ONEWEB-0358             
1 49284U 21090F   25196.89602343  .00000111  00000+0  24231-3 0  9994
2 49284  87.9274 341.4200 0001714  97.6337 262.4991 13.20770876186164
ONEWEB-0359             
1 49285U 21090G   25196.89287009  .00000077  00000+0  15763-3 0  9994
2 49285  87.9272 341.4329 0001503  92.0339 268.0966 13.20773144186145
ONEWEB-0360             
1 49286U 21090H   25196.88339492  .00000044  00000+0  75516-4 0  9995
2 49286  87.9277 341.4416 0001722  93.9224 266.2106 13.20770516185453
ONEWEB-0361             
1 49287U 21090J   25196.94020961  .00000024  00000+0  27244-4 0  9994
2 49287  87.9278 341.4257 0001817 101.6478 258.4859 13.20770458185915
ONEWEB-0362             
1 49288U 21090K   25196.92975283  .00000009  00000+0 -97943-5 0  9997
2 49288  87.9218  11.8335 0001940  85.8519 274.2835 13.19724549182567
ONEWEB-0363             
1 49289U 21090L   25196.80448203  .00000059  00000+0  11375-3 0  9999
2 49289  87.9279 341.4478 0001684 108.5220 251.6097 13.20770672185902
ONEWEB-0364             
1 49290U 21090M   25196.91812914 -.00000005  00000+0 -44207-4 0  9991
2 49290  87.9279 341.4550 0001855 101.0397 259.0945 13.20771435187058
ONEWEB-0365             
1 49291U 21090N   25196.93923090 -.00000015  00000+0 -70104-4 0  9998
2 49291  87.9213  11.7866 0001970  90.4768 269.6590 13.19724817182075
ONEWEB-0366             
1 49292U 21090P   25196.91916571 -.00000030  00000+0 -11631-3 0  9999
2 49292  87.9051 356.6255 0001774  95.4534 264.6799 13.14502850183384
ONEWEB-0367             
1 49293U 21090Q   25196.80289859  .00000066  00000+0  12936-3 0  9996
2 49293  87.9278 341.4434 0001978  91.7371 268.3989 13.20770102185424
ONEWEB-0368             
1 49294U 21090R   25196.92756541 -.00001180  00000+0 -29344-2 0  9997
2 49294  87.9284 341.4525 0002434 112.5581 247.5810 13.20776656186597
ONEWEB-0369             
1 49295U 21090S   25196.93447488 -.00000007  00000+0 -50220-4 0  9992
2 49295  87.9220  11.8175 0001954  92.1261 268.0096 13.19723716182060
ONEWEB-0370             
1 49296U 21090T   25196.88813106  .00000001  00000+0 -28234-4 0  9994
2 49296  87.9282 341.4319 0001769  86.2852 273.8484 13.20770244185478
ONEWEB-0371             
1 49297U 21090U   25196.94238546  .00000012  00000+0 -18282-5 0  9996
2 49297  87.9221  11.8058 0001917  88.5881 271.5471 13.19725354182100
ONEWEB-0372             
1 49298U 21090V   25196.80119519  .00000036  00000+0  55838-4 0  9992
2 49298  87.9274 341.4582 0002025  97.0863 263.0501 13.20770344185439
ONEWEB-0373             
1 49299U 21090W   25196.90391259 -.00000001  00000+0 -34732-4 0  9991
2 49299  87.9276 341.4487 0001870 103.1255 257.0088 13.20770348186637
ONEWEB-0374             
1 49300U 21090X   25196.90646719  .00000131  00000+0  31895-3 0  9996
2 49300  87.9049 356.6081 0001845 113.6584 246.4739 13.14501686183383
ONEWEB-0375             
1 49301U 21090Y   25196.89128469  .00000059  00000+0  11371-3 0  9998
2 49301  87.9277 341.4295 0001503 113.9231 246.2060 13.20770239186139
ONEWEB-0376             
1 49302U 21090Z   25196.94082687 -.00000006  00000+0 -48560-4 0  9991
2 49302  87.9213  11.7888 0002143  90.9368 269.2011 13.19726217182100
ONEWEB-0377             
1 49303U 21090AA  25196.80146358  .00000040  00000+0  65426-4 0  9999
2 49303  87.9280 341.4406 0001618  92.3365 267.7953 13.20773219186112
ONEWEB-0378             
1 49304U 21090AB  25196.82409520 -.00084039  00000+0 -21044+0 0  9990
2 49304  87.9326 341.4497 0004163 130.6444 229.5051 13.20188949185389
ONEWEB-0379             
1 49305U 21090AC  25196.90172058  .00000175  00000+0  43818-3 0  9997
2 49305  87.9048 356.6139 0001899  97.3821 262.7524 13.14503247183380
ONEWEB-0380             
1 49306U 21090AD  25196.93765298 -.00000024  00000+0 -92948-4 0  9999
2 49306  87.9217  11.8184 0001661  92.2018 267.9305 13.19725966182076
ONEWEB-0381             
1 49307U 21090AE  25196.87391181 -.00000157  00000+0 -41906-3 0  9993
2 49307  87.9284 341.4345 0001650 103.1682 256.9635 13.20771980185435
ONEWEB-0382             
1 49308U 21090AF  25196.93704983 -.00000030  00000+0 -10682-3 0  9996
2 49308  87.9278 341.4155 0001791 107.6210 252.5119 13.20770615185433
ONEWEB-0383             
1 49309U 21090AG  25196.89537529  .00000224  00000+0  56972-3 0  9997
2 49309  87.9046 356.5947 0001926  99.7372 260.3975 13.14503298183410
ONEWEB-0384             
1 49310U 21090AH  25196.93282748 -.00000039  00000+0 -12764-3 0  9991
2 49310  87.9285 341.4341 0001924 114.1722 245.9612 13.20786662185444
ONEWEB-0385             
1 49311U 21090AJ  25196.92914999 -.00000036  00000+0 -12162-3 0  9990
2 49311  87.9272 341.4341 0001836 101.4844 258.6495 13.20770845185410
ONEWEB-0386             
1 49312U 21090AK  25196.94651908 -.00000035  00000+0 -11678-3 0  9991
2 49312  87.9275 341.4008 0001889 106.2264 253.9078 13.20771870185437
ONEWEB-0387             
1 49313U 21090AL  25196.93074119 -.00000088  00000+0 -24735-3 0  9990
2 49313  87.9265 341.4632 0001569 101.0192 259.1118 13.20769990185431
ONEWEB-0388             
1 49314U 21090AM  25196.93291370  .00000008  00000+0 -11857-4 0  9994
2 49314  87.9217  11.8247 0001813  96.0557 264.0782 13.19726017182068
